STARLINK-36628          
1 67595U 26018G   26183.79087298  .00025493  00000+0  78903-3 0  9991
2 67595  97.2869 248.3705 0001633 310.2825  49.8275 15.33455652 24974
STARLINK-36629          
1 67596U 26018H   26183.60326731  .00033831  00000+0  10456-2 0  9993
2 67596  97.2840 248.1630 0000341  20.3917 339.7339 15.33443913 24941
STARLINK-36384          
1 67597U 26018J   26183.17095019  .00025711  00000+0  79542-3 0  9998
2 67597  97.2846 247.8357 0000757 111.6420 248.4904 15.33469728 24883
STARLINK-36358          
1 67598U 26018K   26183.59783003  .00024118  00000+0  74720-3 0  9995
2 67598  97.2875 248.1713 0000425  94.1518 265.9773 15.33437104 24949
STARLINK-36582          
1 67599U 26018L   26183.45099682  .00025095  00000+0  77645-3 0  9998
2 67599  97.2859 248.0637 0000459 203.9507 156.1714 15.33470871 24978
STARLINK-36640          
1 67600U 26018M   26183.86157280  .00022677  00000+0  70262-3 0  9996
2 67600  97.2848 248.4257 0001745 108.8868 251.2564 15.33445809 24987
STARLINK-36635          
1 67601U 26018N   26183.17638445  .00022476  00000+0  69631-3 0  9993
2 67601  97.2843 247.8270 0000511 228.7881 131.3317 15.33451836 24888
STARLINK-36631          
1 67602U 26018P   26183.16822186  .00036663  00000+0  11312-2 0  9995
2 67602  97.2831 247.8392 0000472 102.2695 257.8600 15.33480979 24885
STARLINK-36626          
1 67603U 26018Q   26183.44555773  .00023532  00000+0  72863-3 0  9992
2 67603  97.2856 248.0738 0000415 185.0529 175.0710 15.33459264 24923
STARLINK-36605          
1 67604U 26018R   26183.46187675  .00018588  00000+0  57650-3 0  9999
2 67604  97.2848 248.0491 0000882  94.4968 265.6375 15.33455224 24924
STARLINK-36281          
1 67605U 26018S   26183.61142789  .00015173  00000+0  47150-3 0  9995
2 67605  97.2844 248.1567 0000693 328.4312  31.6889 15.33437074 24945
STARLINK-35843          
1 67606U 26018T   26183.84797650  .00003718  00000+0  11751-3 0  9994
2 67606  97.2872 248.4445 0001093  73.9958 286.1406 15.33426943 24987
STARLINK-36351          
1 67607U 26018U   26183.18182211  .00026901  00000+0  83252-3 0  9997
2 67607  97.2837 247.8200 0000265 183.4979 176.6262 15.33449762 24887
STARLINK-36411          
1 67608U 26018V   26183.15735810  .00028780  00000+0  88958-3 0  9999
2 67608  97.2839 247.7017 0000895 123.2633 236.8696 15.33473984 24875
STARLINK-36312          
1 67609U 26018W   26183.44012678  .00029133  00000+0  90093-3 0  9998
2 67609  97.2828 248.0804 0000441 185.1405 174.9834 15.33456110 24927
STARLINK-36387          
1 67610U 26018X   26183.17491107  .00087984  00000+0  16006-2 0  9997
2 67610  97.2828 254.3919 0001185  93.7564 266.3823 15.49203256 25318
STARLINK-36636          
1 67611U 26018Y   26183.61957886  .00014716  00000+0  45727-3 0  9994
2 67611  97.2813 248.1432 0000758 249.5108 110.6053 15.33444944 24942
STARLINK-36407          
1 67612U 26018Z   26183.63045769  .00024087  00000+0  74674-3 0  9990
2 67612  97.2837 248.2813 0001433  91.9590 268.1817 15.33414432 25002
STARLINK-36597          
1 67613U 26018AA  26183.60597471  .00034106  00000+0  10532-2 0  9995
2 67613  97.2829 248.1618 0003196 241.0083 119.0839 15.33464411 24941
NEONSAT-1A              
1 67614U 26019A   26183.82490086  .00004131  00000+0  26813-3 0  9990
2 67614  97.4284 303.4798 0014215 134.9924 225.2460 15.08516454 23172
STARLINK-36548          
1 67617U 26020A   26183.79285837  .00012885  00000+0  47682-3 0  9999
2 67617  43.0019 210.0561 0002692 276.7275  83.3270 15.27586911 23717
STARLINK-36601          
1 67618U 26020B   26183.77874393  .00013753  00000+0  50872-3 0  9999
2 67618  42.9994 209.9256 0001488 260.4755  99.5929 15.27556519 23712
STARLINK-36119          
1 67619U 26020C   26183.78644319  .00013447  00000+0  49717-3 0  9990
2 67619  43.0028 210.0020 0002437 268.6918  91.3655 15.27586597 23716
STARLINK-36607          
1 67620U 26020D   26183.54786686  .00014865  00000+0  54832-3 0  9999
2 67620  43.0009 210.7718 0002166 271.7172  88.3431 15.27597962 23686
STARLINK-36615          
1 67621U 26020E   26183.79542266  .00011400  00000+0  42305-3 0  9995
2 67621  43.0056 210.0495 0002677 264.1266  95.9280 15.27588390 23716
STARLINK-36614          
1 67622U 26020F   26183.77615558  .00009894  00000+0  36880-3 0  9994
2 67622  42.9975 209.9148 0001179 269.6766  90.3950 15.27560396 23717
STARLINK-36600          
1 67623U 26020G   26183.78257773  .00006047  00000+0  22906-3 0  9998
2 67623  43.0018 209.9761 0002106 270.1761  89.8849 15.27583903 23711
STARLINK-36439          
1 67624U 26020H   26183.76587349  .00035509  00000+0  12928-2 0  9999
2 67624  42.9996 209.8415 0001719 271.4215  88.6439 15.27602678 23710
STARLINK-36438          
1 67625U 26020J   26183.51204534  .00016864  00000+0  62078-3 0  9990
2 67625  43.0012 211.3747 0000633  50.3900 309.7008 15.27589111 23677
STARLINK-36436          
1 67626U 26020K   26183.55557726  .00014003  00000+0  51698-3 0  9998
2 67626  43.0004 210.8310 0002295 270.2034  89.8555 15.27606597 23688
