OBJECT_NAME,OBJECT_ID,EPOCH,MEAN_MOTION,ECCENTRICITY,INCLINATION,RA_OF_ASC_NODE,ARG_OF_PERICENTER,MEAN_ANOMALY,EPHEMERIS_TYPE,CLASSIFICATION_TYPE,NORAD_CAT_ID,ELEMENT_SET_NO,REV_AT_EPOCH,BSTAR,MEAN_MOTION_DOT,MEAN_MOTION_DDOT
STARLINK-36628,2026-018G,2026-07-02T18:58:51.425472,15.33455652,.00016332,97.2869,248.3705,310.2825,49.8275,0,U,67595,999,2497,.78903401E-3,.25493E-3,0
STARLINK-36629,2026-018H,2026-07-02T14:28:42.295584,15.33443913,.0000341,97.2840,248.1630,20.3917,339.7339,0,U,67596,999,2494,.10456E-2,.33831E-3,0
STARLINK-36384,2026-018J,2026-07-02T04:06:10.096416,15.33469728,.00007573,97.2846,247.8357,111.6420,248.4904,0,U,67597,999,2488,.79541565E-3,.25711E-3,0
STARLINK-36358,2026-018K,2026-07-02T14:20:52.514592,15.33437104,.0000425,97.2875,248.1713,94.1518,265.9773,0,U,67598,999,2494,.7472E-3,.24118E-3,0
STARLINK-36582,2026-018L,2026-07-02T10:49:26.125248,15.33470871,.0000459,97.2859,248.0637,203.9507,156.1714,0,U,67599,999,2497,.77645E-3,.25095E-3,0
STARLINK-36640,2026-018M,2026-07-02T20:40:39.889920,15.33445809,.00017456,97.2848,248.4257,108.8868,251.2564,0,U,67600,999,2498,.70262359E-3,.22677E-3,0
STARLINK-36635,2026-018N,2026-07-02T04:13:59.616480,15.33451836,.00005117,97.2843,247.8270,228.7881,131.3317,0,U,67601,999,2488,.69631456E-3,.22476E-3,0
STARLINK-36631,2026-018P,2026-07-02T04:02:14.368704,15.33480979,.00004729,97.2831,247.8392,102.2695,257.8600,0,U,67602,999,2488,.11312141E-2,.36663E-3,0
STARLINK-36626,2026-018Q,2026-07-02T10:41:36.187872,15.33459264,.0000415,97.2856,248.0738,185.0529,175.0710,0,U,67603,999,2492,.72863E-3,.23532E-3,0
STARLINK-36605,2026-018R,2026-07-02T11:05:06.151200,15.33455224,.0000882,97.2848,248.0491,94.4968,265.6375,0,U,67604,999,2492,.5765E-3,.18588E-3,0
STARLINK-36281,2026-018S,2026-07-02T14:40:27.369696,15.33437074,.0000693,97.2844,248.1567,328.4312,31.6889,0,U,67605,999,2494,.4715E-3,.15173E-3,0
STARLINK-35843,2026-018T,2026-07-02T20:21:05.169600,15.33426943,.00010936,97.2872,248.4445,73.9958,286.1406,0,U,67606,999,2498,.11751181E-3,.3718E-4,0
STARLINK-36351,2026-018U,2026-07-02T04:21:49.430304,15.33449762,.00002651,97.2837,247.8200,183.4979,176.6262,0,U,67607,999,2488,.83251574E-3,.26901E-3,0
STARLINK-36411,2026-018V,2026-07-02T03:46:35.739840,15.33473984,.00008958,97.2839,247.7017,123.2633,236.8696,0,U,67608,999,2487,.88958465E-3,.2878E-3,0
STARLINK-36312,2026-018W,2026-07-02T10:33:46.953792,15.33456110,.0000441,97.2828,248.0804,185.1405,174.9834,0,U,67609,999,2492,.90093E-3,.29133E-3,0
STARLINK-36387,2026-018X,2026-07-02T04:11:52.316448,15.49203256,.00011856,97.2828,254.3919,93.7564,266.3823,0,U,67610,999,2531,.16006058E-2,.87984E-3,0
STARLINK-36636,2026-018Y,2026-07-02T14:52:11.613504,15.33444944,.00007582,97.2813,248.1432,249.5108,110.6053,0,U,67611,999,2494,.45727481E-3,.14716E-3,0
STARLINK-36407,2026-018Z,2026-07-02T15:07:51.544416,15.33414432,.00014333,97.2837,248.2813,91.9590,268.1817,0,U,67612,999,2500,.74674128E-3,.24087E-3,0
STARLINK-36597,2026-018AA,2026-07-02T14:32:36.214944,15.33464411,.0003196,97.2829,248.1618,241.0083,119.0839,0,U,67613,999,2494,.10532E-2,.34106E-3,0
NEONSAT-1A,2026-019A,2026-07-02T19:47:51.434304,15.08516454,.00142158,97.4284,303.4798,134.9924,225.2460,0,U,67614,999,2317,.26813306E-3,.4131E-4,0
STARLINK-36548,2026-020A,2026-07-02T19:01:42.963168,15.27586911,.00026922,43.0019,210.0561,276.7275,83.3270,0,U,67617,999,2371,.47682325E-3,.12885E-3,0
STARLINK-36601,2026-020B,2026-07-02T18:41:23.475552,15.27556519,.00014887,42.9994,209.9256,260.4755,99.5929,0,U,67618,999,2371,.5087182E-3,.13753E-3,0
STARLINK-36119,2026-020C,2026-07-02T18:52:28.691616,15.27586597,.00024371,43.0028,210.0020,268.6918,91.3655,0,U,67619,999,2371,.49716829E-3,.13447E-3,0
STARLINK-36607,2026-020D,2026-07-02T13:08:55.696704,15.27597962,.0002166,43.0009,210.7718,271.7172,88.3431,0,U,67620,999,2368,.54832E-3,.14865E-3,0
STARLINK-36615,2026-020E,2026-07-02T19:05:24.517824,15.27588390,.00026776,43.0056,210.0495,264.1266,95.9280,0,U,67621,999,2371,.42304839E-3,.114E-3,0
STARLINK-36614,2026-020F,2026-07-02T18:37:39.842112,15.27560396,.00011796,42.9975,209.9148,269.6766,90.3950,0,U,67622,999,2371,.36880384E-3,.9894E-4,0
STARLINK-36600,2026-020G,2026-07-02T18:46:54.715872,15.27583903,.00021065,43.0018,209.9761,270.1761,89.8849,0,U,67623,999,2371,.22906014E-3,.6047E-4,0
STARLINK-36439,2026-020H,2026-07-02T18:22:51.469536,15.27602678,.00017195,42.9996,209.8415,271.4215,88.6439,0,U,67624,999,2371,.12927797E-2,.35509E-3,0
STARLINK-36438,2026-020J,2026-07-02T12:17:20.717376,15.27589111,.0000633,43.0012,211.3747,50.3900,309.7008,0,U,67625,999,2367,.62078E-3,.16864E-3,0
STARLINK-36436,2026-020K,2026-07-02T13:20:01.875264,15.27606597,.0002295,43.0004,210.8310,270.2034,89.8555,0,U,67626,999,2368,.51698E-3,.14003E-3,0
